{
    "links": {
        "self": "http://www.neowsapp.com/rest/v1/neo/3102767?api_key=iIulBulltgU6a56xZRHN4H3l9WmuAYTsLGpBGhQ2"
    },
    "id": "3102767",
    "neo_reference_id": "3102767",
    "name": "(2002 AE29)",
    "designation": "2002 AE29",
    "nasa_jpl_url": "http://ssd.jpl.nasa.gov/sbdb.cgi?sstr=3102767",
    "absolute_magnitude_h": 24.6,
    "estimated_diameter": {
        "kilometers": {
            "estimated_diameter_min": 0.0319561887,
            "estimated_diameter_max": 0.0714562102
        },
        "meters": {
            "estimated_diameter_min": 31.9561886721,
            "estimated_diameter_max": 71.4562101727
        },
        "miles": {
            "estimated_diameter_min": 0.0198566489,
            "estimated_diameter_max": 0.0444008168
        },
        "feet": {
            "estimated_diameter_min": 104.8431420431,
            "estimated_diameter_max": 234.436392583
        }
    },
    "is_potentially_hazardous_asteroid": false,
    "close_approach_data": [
        {
            "close_approach_date": "2002-01-02",
            "close_approach_date_full": "2002-Jan-02 18:47",
            "epoch_date_close_approach": 1009997220000,
            "relative_velocity": {
                "kilometers_per_second": "11.4486294141",
                "kilometers_per_hour": "41215.0658906254",
                "miles_per_hour": "25609.4391363166"
            },
            "miss_distance": {
                "astronomical": "0.0312941789",
                "lunar": "12.1734355921",
                "kilometers": "4681542.506838943",
                "miles": "2908975.6227576934"
            },
            "orbiting_body": "Earth"
        }
    ],
    "orbital_data": {
        "orbit_id": "8",
        "orbit_determination_date": "2017-04-06 09:15:33",
        "first_observation_date": "2002-01-13",
        "last_observation_date": "2002-01-18",
        "data_arc_in_days": 5,
        "observations_used": 21,
        "orbit_uncertainty": "9",
        "minimum_orbit_intersection": ".0220261",
        "jupiter_tisserand_invariant": "3.264",
        "epoch_osculation": "2452289.5",
        "eccentricity": ".6097957970105109",
        "semi_major_axis": "2.368337940483936",
        "inclination": "3.567820620770682",
        "ascending_node_longitude": "118.8694749774393",
        "orbital_period": "1331.263225863524",
        "perihelion_distance": ".9241354184763022",
        "perihelion_argument": "305.4439065160316",
        "aphelion_distance": "3.812540462491569",
        "perihelion_time": "2452249.767935650300",
        "mean_anomaly": "10.74433882646612",
        "mean_motion": ".2704198486114464",
        "equinox": "J2000",
        "orbit_class": {
            "orbit_class_type": "APO",
            "orbit_class_description": "Near-Earth asteroid orbits which cross the Earth’s orbit similar to that of 1862 Apollo",
            "orbit_class_range": "a (semi-major axis) > 1.0 AU; q (perihelion) < 1.017 AU"
        }
    },
    "is_sentry_object": false
}